{
    "links": {
        "self": "http://www.neowsapp.com/rest/v1/neo/54016188?api_key=iIulBulltgU6a56xZRHN4H3l9WmuAYTsLGpBGhQ2"
    },
    "id": "54016188",
    "neo_reference_id": "54016188",
    "name": "(2020 FC)",
    "designation": "2020 FC",
    "nasa_jpl_url": "http://ssd.jpl.nasa.gov/sbdb.cgi?sstr=54016188",
    "absolute_magnitude_h": 23.106,
    "estimated_diameter": {
        "kilometers": {
            "estimated_diameter_min": 0.0635850441,
            "estimated_diameter_max": 0.1421804809
        },
        "meters": {
            "estimated_diameter_min": 63.5850440669,
            "estimated_diameter_max": 142.1804808858
        },
        "miles": {
            "estimated_diameter_min": 0.0395099024,
            "estimated_diameter_max": 0.0883468276
        },
        "feet": {
            "estimated_diameter_min": 208.6123559764,
            "estimated_diameter_max": 466.4714089095
        }
    },
    "is_potentially_hazardous_asteroid": false,
    "close_approach_data": [
        {
            "close_approach_date": "2018-03-02",
            "close_approach_date_full": "2018-Mar-02 14:04",
            "epoch_date_close_approach": 1519999440000,
            "relative_velocity": {
                "kilometers_per_second": "31.9863672023",
                "kilometers_per_hour": "115150.9219281853",
                "miles_per_hour": "71550.304794766"
            },
            "miss_distance": {
                "astronomical": "0.3745339793",
                "lunar": "145.6937179477",
                "kilometers": "56029485.545904091",
                "miles": "34815107.9202188158"
            },
            "orbiting_body": "Earth"
        },
        {
            "close_approach_date": "2020-03-21",
            "close_approach_date_full": "2020-Mar-21 18:16",
            "epoch_date_close_approach": 1584814560000,
            "relative_velocity": {
                "kilometers_per_second": "19.5689815763",
                "kilometers_per_hour": "70448.3336747876",
                "miles_per_hour": "43773.8548880924"
            },
            "miss_distance": {
                "astronomical": "0.0652835108",
                "lunar": "25.3952857012",
                "kilometers": "9766274.161801996",
                "miles": "6068481.3649237048"
            },
            "orbiting_body": "Earth"
        },
        {
            "close_approach_date": "2117-07-19",
            "close_approach_date_full": "2117-Jul-19 09:55",
            "epoch_date_close_approach": 4656131700000,
            "relative_velocity": {
                "kilometers_per_second": "21.1892777921",
                "kilometers_per_hour": "76281.4000515229",
                "miles_per_hour": "47398.2954931254"
            },
            "miss_distance": {
                "astronomical": "0.1302192232",
                "lunar": "50.6552778248",
                "kilometers": "19480518.423774584",
                "miles": "12104632.8492498992"
            },
            "orbiting_body": "Venus"
        },
        {
            "close_approach_date": "2117-10-02",
            "close_approach_date_full": "2117-Oct-02 02:32",
            "epoch_date_close_approach": 4662585120000,
            "relative_velocity": {
                "kilometers_per_second": "19.9107753469",
                "kilometers_per_hour": "71678.7912488137",
                "miles_per_hour": "44538.4133734643"
            },
            "miss_distance": {
                "astronomical": "0.085304326",
                "lunar": "33.183382814",
                "kilometers": "12761345.47138562",
                "miles": "7929532.378616756"
            },
            "orbiting_body": "Earth"
        },
        {
            "close_approach_date": "2119-10-24",
            "close_approach_date_full": "2119-Oct-24 07:53",
            "epoch_date_close_approach": 4727577180000,
            "relative_velocity": {
                "kilometers_per_second": "32.4962443514",
                "kilometers_per_hour": "116986.4796649183",
                "miles_per_hour": "72690.8489895711"
            },
            "miss_distance": {
                "astronomical": "0.398979557",
                "lunar": "155.203047673",
                "kilometers": "59686491.90074359",
                "miles": "37087466.298457942"
            },
            "orbiting_body": "Earth"
        }
    ],
    "orbital_data": {
        "orbit_id": "4",
        "orbit_determination_date": "2020-03-20 06:05:58",
        "first_observation_date": "2020-02-27",
        "last_observation_date": "2020-03-19",
        "data_arc_in_days": 21,
        "observations_used": 43,
        "orbit_uncertainty": "8",
        "minimum_orbit_intersection": ".0486182",
        "jupiter_tisserand_invariant": "4.046",
        "epoch_osculation": "2458920.5",
        "eccentricity": ".6493575439521996",
        "semi_major_axis": "1.622463457345984",
        "inclination": "8.920830374920854",
        "ascending_node_longitude": "341.3811347404966",
        "orbital_period": "754.8502667527964",
        "perihelion_distance": ".5689045715316017",
        "perihelion_argument": "293.776415084911",
        "aphelion_distance": "2.676022343160367",
        "perihelion_time": "2458980.816847725191",
        "mean_anomaly": "331.233943819775",
        "mean_motion": ".4769157750299839",
        "equinox": "J2000",
        "orbit_class": {
            "orbit_class_type": "APO",
            "orbit_class_description": "Near-Earth asteroid orbits which cross the Earth’s orbit similar to that of 1862 Apollo",
            "orbit_class_range": "a (semi-major axis) > 1.0 AU; q (perihelion) < 1.017 AU"
        }
    },
    "is_sentry_object": false
}